NORAD_CAT_ID,OBJECT_NAME,OBJECT_TYPE,EPOCH,MEAN_MOTION,ECCENTRICITY,INCLINATION,RA_OF_ASC_NODE,ARG_OF_PERICENTER,MEAN_ANOMALY,BSTAR,MEAN_MOTION_DOT,MEAN_MOTION_DDOT,TLE_LINE0,TLE_LINE1,TLE_LINE2,SEMIMAJOR_AXIS,PERIOD,APOGEE,PERIGEE,DECAYED
52334.0,STARLINK-3880,PAYLOAD,2023-12-31 22:06:18,15.08859946,0.0001308,53.2157,194.9339,97.3164,262.7977,-0.0002674,-4.543e-05,0.0,0 STARLINK-3880,1 52334U 22045D   23365.92105319 -.00004543  00000-0 -26740-3 0  9999,2 52334  53.2157 194.9339 0001308  97.3164 262.7977 15.08859946 95045,6917.819,95.436,540.589,538.78,0.0
52334.0,STARLINK-3880,PAYLOAD,2024-01-01 01:17:06,15.08834425,0.0001273,53.2157,194.3392,94.6582,265.4555,0.0001439,2.003e-05,0.0,0 STARLINK-3880,1 52334U 22045D   24001.05354266  .00002003  00000-0  14390-3 0  9993,2 52334  53.2157 194.3392 0001273  94.6582 265.4555 15.08834425 95062,6917.897,95.438,540.643,538.882,0.0
52334.0,STARLINK-3880,PAYLOAD,2024-01-01 12:24:48,15.08839206,0.0001335,53.216,192.2575,87.554,272.5605,0.00013904,1.926e-05,0.0,0 STARLINK-3880,1 52334U 22045D   24001.51722292  .00001926  00000-0  13904-3 0  9995,2 52334  53.2160 192.2575 0001335  87.5540 272.5605 15.08839206 95135,6917.883,95.438,540.671,538.824,0.0
52334.0,STARLINK-3880,PAYLOAD,2024-01-01 18:46:20,15.08841743,0.0001318,53.2159,191.0682,89.2659,270.8484,0.00015318,2.151e-05,0.0,0 STARLINK-3880,1 52334U 22045D   24001.78218118  .00002151  00000-0  15318-3 0  9993,2 52334  53.2159 191.0682 0001318  89.2659 270.8484 15.08841743 95179,6917.875,95.437,540.652,538.828,0.0
52334.0,STARLINK-3880,PAYLOAD,2024-01-02 18:37:07,15.08840844,0.0001327,53.2156,186.6078,87.0368,273.0776,7.6587e-05,9.31e-06,0.0,0 STARLINK-3880,1 52334U 22045D   24002.77578428  .00000931  00000-0  76587-4 0  9996,2 52334  53.2156 186.6078 0001327  87.0368 273.0776 15.08840844 95325,6917.878,95.438,540.661,538.825,0.0
52334.0,STARLINK-3880,PAYLOAD,2024-01-03 18:27:54,15.08841679,0.0001274,53.2156,182.1469,88.73,271.3838,4.1386e-05,3.71e-06,0.0,0 STARLINK-3880,1 52334U 22045D   24003.76938309  .00000371  00000-0  41386-4 0  9991,2 52334  53.2156 182.1469 0001274  88.7300 271.3838 15.08841679 95478,6917.875,95.437,540.622,538.859,0.0
52334.0,STARLINK-3880,PAYLOAD,2024-01-04 11:57:09,15.08838249,0.0001287,53.2159,178.875,87.4639,272.65,6.079e-05,6.8e-06,0.0,0 STARLINK-3880,1 52334U 22045D   24004.49802489  .00000680  00000-0  60790-4 0  9994,2 52334  53.2159 178.8750 0001287  87.4639 272.6500 15.08838249 95582,6917.886,95.438,540.641,538.86,0.0
52334.0,STARLINK-3880,PAYLOAD,2024-01-04 18:18:41,15.0883877,0.0001275,53.2161,177.6854,88.6993,271.4145,5.9507e-05,6.59e-06,0.0,0 STARLINK-3880,1 52334U 22045D   24004.76298465  .00000659  00000-0  59507-4 0  9997,2 52334  53.2161 177.6854 0001275  88.6993 271.4145 15.08838770 95626,6917.884,95.438,540.631,538.867,0.0
52334.0,STARLINK-3880,PAYLOAD,2024-01-05 14:58:43,15.0883481,0.0001258,53.216,173.8199,91.0849,269.0288,2.3235e-05,8.2e-07,0.0,0 STARLINK-3880,1 52334U 22045D   24005.62411015  .00000082  00000-0  23235-4 0  9990,2 52334  53.2160 173.8199 0001258  91.0849 269.0288 15.08834810 95750,6917.896,95.438,540.632,538.891,0.0
52334.0,STARLINK-3880,PAYLOAD,2024-01-05 18:09:29,15.08836791,0.0001258,53.216,173.2251,92.4064,267.7072,3.6471e-05,2.93e-06,0.0,0 STARLINK-3880,1 52334U 22045D   24005.75658861  .00000293  00000-0  36471-4 0  9996,2 52334  53.2160 173.2251 0001258  92.4064 267.7072 15.08836791 95775,6917.89,95.438,540.625,538.885,0.0
52334.0,STARLINK-3880,PAYLOAD,2024-01-06 16:24:53,15.08837996,0.0001247,53.2161,169.0621,91.7758,268.3377,5.4463e-05,5.79e-06,0.0,0 STARLINK-3880,1 52334U 22045D   24006.68394967  .00000579  00000-0  54463-4 0  9991,2 52334  53.2161 169.0621 0001247  91.7758 268.3377 15.08837996 95919,6917.887,95.438,540.614,538.889,0.0
52334.0,STARLINK-3880,PAYLOAD,2024-01-07 09:54:07,15.08837781,0.0001212,53.216,165.7918,92.6533,267.4598,7.3535e-05,8.83e-06,0.0,0 STARLINK-3880,1 52334U 22045D   24007.41259096  .00000883  00000-0  73535-4 0  9995,2 52334  53.2160 165.7918 0001212  92.6533 267.4598 15.08837781 96023,6917.887,95.438,540.591,538.914,0.0
52334.0,STARLINK-3880,PAYLOAD,2024-01-07 14:40:17,15.0883948,0.0001202,53.2159,164.9001,91.0914,269.0215,8.4409e-05,1.056e-05,0.0,0 STARLINK-3880,1 52334U 22045D   24007.61131012  .00001056  00000-0  84409-4 0  9999,2 52334  53.2159 164.9001 0001202  91.0914 269.0215 15.08839480 96055,6917.882,95.438,540.579,538.915,0.0
52334.0,STARLINK-3880,PAYLOAD,2024-01-07 17:51:03,15.08841592,0.0001204,53.2161,164.3053,87.5687,272.5443,0.00010226,1.34e-05,0.0,0 STARLINK-3880,1 52334U 22045D   24007.74378865  .00001340  00000-0  10226-3 0  9993,2 52334  53.2161 164.3053 0001204  87.5687 272.5443 15.08841592 96079,6917.876,95.437,540.573,538.908,0.0
52334.0,STARLINK-3880,PAYLOAD,2024-01-08 14:31:04,15.08838236,0.0001389,53.2164,160.4401,68.367,291.747,4.9427e-05,4.99e-06,0.0,0 STARLINK-3880,1 52334U 22045D   24008.60491420  .00000499  00000-0  49427-4 0  9992,2 52334  53.2164 160.4401 0001389  68.3670 291.7470 15.08838236 96208,6917.886,95.438,540.712,538.79,0.0
52334.0,STARLINK-3880,PAYLOAD,2024-01-08 17:41:50,15.08841245,0.0001384,53.2164,159.8451,72.5713,287.543,7.0893e-05,8.41e-06,0.0,0 STARLINK-3880,1 52334U 22045D   24008.73739160  .00000841  00000-0  70893-4 0  9994,2 52334  53.2164 159.8451 0001384  72.5713 287.5430 15.08841245 96220,6917.877,95.437,540.699,538.784,0.0
52334.0,STARLINK-3880,PAYLOAD,2024-01-09 14:21:51,15.08846064,0.0001363,53.2163,155.9797,76.1367,283.9777,8.6925e-05,1.096e-05,0.0,0 STARLINK-3880,1 52334U 22045D   24009.59850770  .00001096  00000-0  86925-4 0  9996,2 52334  53.2163 155.9797 0001363  76.1367 283.9777 15.08846064 96353,6917.862,95.437,540.67,538.784,0.0
52334.0,STARLINK-3880,PAYLOAD,2024-01-09 19:08:00,15.08850289,0.0001364,53.216,155.087,79.3375,280.7771,0.00011699,1.575e-05,0.0,0 STARLINK-3880,1 52334U 22045D   24009.79722342  .00001575  00000-0  11699-3 0  9998,2 52334  53.2160 155.0870 0001364  79.3375 280.7771 15.08850289 96384,6917.849,95.437,540.658,538.77,0.0
52334.0,STARLINK-3880,PAYLOAD,2024-01-10 15:48:01,15.08841429,0.0001382,53.2164,151.2188,94.9532,265.1618,4.473e-05,4.24e-06,0.0,0 STARLINK-3880,1 52334U 22045D   24010.65834997  .00000424  00000-0  44730-4 0  9990,2 52334  53.2164 151.2188 0001382  94.9532 265.1618 15.08841429 96514,6917.876,95.437,540.697,538.785,0.0
52334.0,STARLINK-3880,PAYLOAD,2024-01-11 14:03:24,15.08849331,0.0001396,53.2156,147.0593,74.8243,285.2903,8.1069e-05,1.003e-05,0.0,0 STARLINK-3880,1 52334U 22045D   24011.58570445  .00001003  00000-0  81069-4 0  9998,2 52334  53.2156 147.0593 0001396  74.8243 285.2903 15.08849331 96654,6917.852,95.437,540.683,538.751,0.0
52334.0,STARLINK-3880,PAYLOAD,2024-01-11 18:49:33,15.08853045,0.000135,53.2159,146.1655,94.5423,265.5723,0.00012236,1.661e-05,0.0,0 STARLINK-3880,1 52334U 22045D   24011.78441967  .00001661  00000-0  12236-3 0  9995,2 52334  53.2159 146.1655 0001350  94.5423 265.5723 15.08853045 96686,6917.841,95.437,540.639,538.772,0.0
52334.0,STARLINK-3880,PAYLOAD,2024-01-12 12:18:49,15.08836759,0.0002118,53.2174,142.8869,136.4452,223.6708,-5.2034e-05,-1.116e-05,0.0,0 STARLINK-3880,1 52334U 22045D   24012.51306980 -.00001116  00000-0 -52034-4 0  9990,2 52334  53.2174 142.8869 0002118 136.4452 223.6708 15.08836759 96797,6917.89,95.438,541.221,538.29,0.0
52334.0,STARLINK-3880,PAYLOAD,2024-01-12 13:54:12,15.08836186,0.0001976,53.217,142.5907,130.4914,229.625,-1.4395e-05,-5.17e-06,0.0,0 STARLINK-3880,1 52334U 22045D   24012.57931130 -.00000517  00000-0 -14395-4 0  9999,2 52334  53.2170 142.5907 0001976 130.4914 229.6250 15.08836186 96805,6917.892,95.438,541.124,538.39,0.0
52334.0,STARLINK-3880,PAYLOAD,2024-01-12 18:40:22,15.08835439,0.0001245,53.2154,141.705,100.3983,259.715,1.0456e-05,-1.21e-06,0.0,0 STARLINK-3880,1 52334U 22045D   24012.77803474 -.00000121  00000-0  10456-4 0  9994,2 52334  53.2154 141.7050 0001245 100.3983 259.7150 15.08835439 96834,6917.894,95.438,540.621,538.898,0.0
52334.0,STARLINK-3880,PAYLOAD,2024-01-13 13:44:59,15.08848732,0.0001249,53.217,138.1363,106.4164,253.6966,0.00015787,2.226e-05,0.0,0 STARLINK-3880,1 52334U 22045D   24013.57291019  .00002226  00000-0  15787-3 0  9997,2 52334  53.2170 138.1363 0001249 106.4164 253.6966 15.08848732 96952,6917.854,95.437,540.583,538.855,0.0
52334.0,STARLINK-3880,PAYLOAD,2024-01-13 18:31:08,15.08850207,0.0001299,53.2173,137.2426,106.2705,253.843,0.00033052,4.978e-05,0.0,0 STARLINK-3880,1 52334U 22045D   24013.77163080  .00004978  00000-0  33052-3 0  9996,2 52334  53.2173 137.2426 0001299 106.2705 253.8430 15.08850207 96980,6917.849,95.437,540.613,538.816,0.0
52334.0,STARLINK-3880,PAYLOAD,2024-01-14 13:35:46,15.08844766,0.000193,53.2156,133.6701,136.2723,223.8422,0.00021688,3.166e-05,0.0,0 STARLINK-3880,1 52334U 22045D   24014.56651318  .00003166  00000-0  21688-3 0  9990,2 52334  53.2156 133.6701 0001930 136.2723 223.8422 15.08844766 97108,6917.866,95.437,541.066,538.396,0.0
52334.0,STARLINK-3880,PAYLOAD,2024-01-14 16:46:33,15.08854633,0.0001352,53.216,133.0805,92.575,267.5397,0.00049696,7.633e-05,0.0,0 STARLINK-3880,1 52334U 22045D   24014.69899320  .00007633  00000-0  49696-3 0  9993,2 52334  53.2160 133.0805 0001352  92.5750 267.5397 15.08854633 97126,6917.836,95.437,540.636,538.765,0.0
52334.0,STARLINK-3880,PAYLOAD,2024-01-15 11:51:10,15.08845844,0.0001209,53.2163,129.5123,103.1,257.0127,0.0004003,6.09e-05,0.0,0 STARLINK-3880,1 52334U 22045D   24015.49387341  .00006090  00000-0  40030-3 0  9996,2 52334  53.2163 129.5123 0001209 103.1000 257.0127 15.08845844 97242,6917.863,95.437,540.564,538.891,0.0
52334.0,STARLINK-3880,PAYLOAD,2024-01-15 13:26:33,15.08849758,0.0001285,53.2157,129.2155,97.2919,262.822,0.00054927,8.467e-05,0.0,0 STARLINK-3880,1 52334U 22045D   24015.56011302  .00008467  00000-0  54927-3 0  9995,2 52334  53.2157 129.2155 0001285  97.2919 262.8220 15.08849758 97250,6917.851,95.437,540.605,538.827,0.0
